QIANFAN-1               
1 60379U 24140A   26085.52997022  .00000043  00000+0  48111-4 0  9998
2 60379  88.9685 288.5328 0015690 276.2071  83.7293 13.51001294 81369
QIANFAN-2               
1 60380U 24140B   26085.55865288  .00000050  00000+0  59400-4 0  9992
2 60380  88.9671 288.3547 0011059 244.2847 115.7163 13.51005423 81425
QIANFAN-3               
1 60381U 24140C   26085.56686671  .00000050  00000+0  58376-4 0  9992
2 60381  88.9664 288.4787 0012091 259.0149 100.9642 13.51001538 81332
QIANFAN-4               
1 60382U 24140D   26085.54228177  .00000066  00000+0  84323-4 0  9992
2 60382  88.9689 288.4051 0011262 247.4495 112.5464 13.51002343 81457
QIANFAN-5               
1 60383U 24140E   26085.51758050  .00000058  00000+0  71301-4 0  9991
2 60383  88.9664 288.5091 0013354 272.0099  87.9523 13.51003569 81311
QIANFAN-6               
1 60384U 24140F   26085.53816904  .00000046  00000+0  52569-4 0  9999
2 60384  88.9691 288.2810 0011323 254.2929 105.6973 13.51003597 81516
QIANFAN-7               
1 60385U 24140G   26085.54210926  .00000185  00000+0  68901-4 0  9994
2 60385  88.9711 281.5186 0016987  63.2932 296.9999 14.27781423 85202
QIANFAN-8               
1 60386U 24140H   26085.54635986  .00000063  00000+0  79070-4 0  9996
2 60386  88.9692 288.5192 0014771 257.1614 102.7887 13.51005179 81361
QIANFAN-9               
1 60387U 24140J   26085.52174922  .00000050  00000+0  58825-4 0  9994
2 60387  88.9690 288.5952 0014461 256.9501 103.0036 13.50999742 81347
QIANFAN-10              
1 60388U 24140K   26085.52578438  .00000054  00000+0  64852-4 0  9996
2 60388  88.9700 287.9518 0013191 231.2176 128.7797 13.50998420 81478
QIANFAN-11              
1 60389U 24140L   26085.56283953  .00000053  00000+0  63231-4 0  9995
2 60389  88.9626 288.4578 0012494 256.3462 103.6298 13.51005275 81138
QIANFAN-12              
1 60390U 24140M   26085.50938664  .00000058  00000+0  71005-4 0  9990
2 60390  88.9669 288.5521 0011293 265.9139  94.0722 13.51002822 81252
QIANFAN-13              
1 60391U 24140N   26085.55461375  .00000058  00000+0  72049-4 0  9995
2 60391  88.9681 288.6600 0011121 268.8657  91.1220 13.51003188 81283
QIANFAN-14              
1 60392U 24140P   26085.50516515  .00000065  00000+0  81477-4 0  9991
2 60392  88.9660 288.5406 0014810 268.8064  91.1390 13.51003353 81286
QIANFAN-15              
1 60393U 24140Q   26085.51355818  .00000050  00000+0  58302-4 0  9995
2 60393  88.9683 288.5209 0010633 252.7799 107.2189 13.51006721 81275
QIANFAN-16              
1 60394U 24140R   26085.50109035  .00000059  00000+0  72153-4 0  9992
2 60394  88.9686 288.6455 0012751 273.3802  86.5890 13.50999894 81189
QIANFAN-17              
1 60395U 24140S   26085.49698506  .00000043  00000+0  47380-4 0  9994
2 60395  88.9697 288.7032 0013127 266.1679  93.7971 13.51006309 82142
