[{"OBJECT_NAME":"QIANFAN-1","OBJECT_ID":"2024-140A","EPOCH":"2026-03-26T12:43:09.427008","MEAN_MOTION":13.51001294,"ECCENTRICITY":0.001569,"INCLINATION":88.9685,"RA_OF_ASC_NODE":288.5328,"ARG_OF_PERICENTER":276.2071,"MEAN_ANOMALY":83.7293,"EPHEMERIS_TYPE":0,"CLASSIFICATION_TYPE":"U","NORAD_CAT_ID":60379,"ELEMENT_SET_NO":999,"REV_AT_EPOCH":8136,"BSTAR":4.8111e-5,"MEAN_MOTION_DOT":4.3e-7,"MEAN_MOTION_DDOT":0},{"OBJECT_NAME":"QIANFAN-2","OBJECT_ID":"2024-140B","EPOCH":"2026-03-26T13:24:27.608832","MEAN_MOTION":13.51005423,"ECCENTRICITY":0.0011059,"INCLINATION":88.9671,"RA_OF_ASC_NODE":288.3547,"ARG_OF_PERICENTER":244.2847,"MEAN_ANOMALY":115.7163,"EPHEMERIS_TYPE":0,"CLASSIFICATION_TYPE":"U","NORAD_CAT_ID":60380,"ELEMENT_SET_NO":999,"REV_AT_EPOCH":8142,"BSTAR":5.94e-5,"MEAN_MOTION_DOT":5.0e-7,"MEAN_MOTION_DDOT":0},{"OBJECT_NAME":"QIANFAN-3","OBJECT_ID":"2024-140C","EPOCH":"2026-03-26T13:36:17.283744","MEAN_MOTION":13.51001538,"ECCENTRICITY":0.0012091,"INCLINATION":88.9664,"RA_OF_ASC_NODE":288.4787,"ARG_OF_PERICENTER":259.0149,"MEAN_ANOMALY":100.9642,"EPHEMERIS_TYPE":0,"CLASSIFICATION_TYPE":"U","NORAD_CAT_ID":60381,"ELEMENT_SET_NO":999,"REV_AT_EPOCH":8133,"BSTAR":5.8376e-5,"MEAN_MOTION_DOT":5.0e-7,"MEAN_MOTION_DDOT":0},{"OBJECT_NAME":"QIANFAN-4","OBJECT_ID":"2024-140D","EPOCH":"2026-03-26T13:00:53.144928","MEAN_MOTION":13.51002343,"ECCENTRICITY":0.0011262,"INCLINATION":88.9689,"RA_OF_ASC_NODE":288.4051,"ARG_OF_PERICENTER":247.4495,"MEAN_ANOMALY":112.5464,"EPHEMERIS_TYPE":0,"CLASSIFICATION_TYPE":"U","NORAD_CAT_ID":60382,"ELEMENT_SET_NO":999,"REV_AT_EPOCH":8145,"BSTAR":8.4323e-5,"MEAN_MOTION_DOT":6.6e-7,"MEAN_MOTION_DDOT":0},{"OBJECT_NAME":"QIANFAN-5","OBJECT_ID":"2024-140E","EPOCH":"2026-03-26T12:25:18.955200","MEAN_MOTION":13.51003569,"ECCENTRICITY":0.0013354,"INCLINATION":88.9664,"RA_OF_ASC_NODE":288.5091,"ARG_OF_PERICENTER":272.0099,"MEAN_ANOMALY":87.9523,"EPHEMERIS_TYPE":0,"CLASSIFICATION_TYPE":"U","NORAD_CAT_ID":60383,"ELEMENT_SET_NO":999,"REV_AT_EPOCH":8131,"BSTAR":7.1301e-5,"MEAN_MOTION_DOT":5.8e-7,"MEAN_MOTION_DDOT":0},{"OBJECT_NAME":"QIANFAN-6","OBJECT_ID":"2024-140F","EPOCH":"2026-03-26T12:54:57.805056","MEAN_MOTION":13.51003597,"ECCENTRICITY":0.0011323,"INCLINATION":88.9691,"RA_OF_ASC_NODE":288.281,"ARG_OF_PERICENTER":254.2929,"MEAN_ANOMALY":105.6973,"EPHEMERIS_TYPE":0,"CLASSIFICATION_TYPE":"U","NORAD_CAT_ID":60384,"ELEMENT_SET_NO":999,"REV_AT_EPOCH":8151,"BSTAR":5.2569e-5,"MEAN_MOTION_DOT":4.6e-7,"MEAN_MOTION_DDOT":0},{"OBJECT_NAME":"QIANFAN-7","OBJECT_ID":"2024-140G","EPOCH":"2026-03-26T13:00:38.240064","MEAN_MOTION":14.27781423,"ECCENTRICITY":0.0016987,"INCLINATION":88.9711,"RA_OF_ASC_NODE":281.5186,"ARG_OF_PERICENTER":63.2932,"MEAN_ANOMALY":296.9999,"EPHEMERIS_TYPE":0,"CLASSIFICATION_TYPE":"U","NORAD_CAT_ID":60385,"ELEMENT_SET_NO":999,"REV_AT_EPOCH":8520,"BSTAR":6.8901e-5,"MEAN_MOTION_DOT":1.85e-6,"MEAN_MOTION_DDOT":0},{"OBJECT_NAME":"QIANFAN-8","OBJECT_ID":"2024-140H","EPOCH":"2026-03-26T13:06:45.491904","MEAN_MOTION":13.51005179,"ECCENTRICITY":0.0014771,"INCLINATION":88.9692,"RA_OF_ASC_NODE":288.5192,"ARG_OF_PERICENTER":257.1614,"MEAN_ANOMALY":102.7887,"EPHEMERIS_TYPE":0,"CLASSIFICATION_TYPE":"U","NORAD_CAT_ID":60386,"ELEMENT_SET_NO":999,"REV_AT_EPOCH":8136,"BSTAR":7.907e-5,"MEAN_MOTION_DOT":6.3e-7,"MEAN_MOTION_DDOT":0},{"OBJECT_NAME":"QIANFAN-9","OBJECT_ID":"2024-140J","EPOCH":"2026-03-26T12:31:19.132608","MEAN_MOTION":13.50999742,"ECCENTRICITY":0.0014461,"INCLINATION":88.969,"RA_OF_ASC_NODE":288.5952,"ARG_OF_PERICENTER":256.9501,"MEAN_ANOMALY":103.0036,"EPHEMERIS_TYPE":0,"CLASSIFICATION_TYPE":"U","NORAD_CAT_ID":60387,"ELEMENT_SET_NO":999,"REV_AT_EPOCH":8134,"BSTAR":5.8825e-5,"MEAN_MOTION_DOT":5.0e-7,"MEAN_MOTION_DDOT":0},{"OBJECT_NAME":"QIANFAN-10","OBJECT_ID":"2024-140K","EPOCH":"2026-03-26T12:37:07.770432","MEAN_MOTION":13.5099842,"ECCENTRICITY":0.0013191,"INCLINATION":88.97,"RA_OF_ASC_NODE":287.9518,"ARG_OF_PERICENTER":231.2176,"MEAN_ANOMALY":128.7797,"EPHEMERIS_TYPE":0,"CLASSIFICATION_TYPE":"U","NORAD_CAT_ID":60388,"ELEMENT_SET_NO":999,"REV_AT_EPOCH":8147,"BSTAR":6.4852e-5,"MEAN_MOTION_DOT":5.4e-7,"MEAN_MOTION_DDOT":0},{"OBJECT_NAME":"QIANFAN-11","OBJECT_ID":"2024-140L","EPOCH":"2026-03-26T13:30:29.335392","MEAN_MOTION":13.51005275,"ECCENTRICITY":0.0012494,"INCLINATION":88.9626,"RA_OF_ASC_NODE":288.4578,"ARG_OF_PERICENTER":256.3462,"MEAN_ANOMALY":103.6298,"EPHEMERIS_TYPE":0,"CLASSIFICATION_TYPE":"U","NORAD_CAT_ID":60389,"ELEMENT_SET_NO":999,"REV_AT_EPOCH":8113,"BSTAR":6.3231e-5,"MEAN_MOTION_DOT":5.3e-7,"MEAN_MOTION_DDOT":0},{"OBJECT_NAME":"QIANFAN-12","OBJECT_ID":"2024-140M","EPOCH":"2026-03-26T12:13:31.005696","MEAN_MOTION":13.51002822,"ECCENTRICITY":0.0011293,"INCLINATION":88.9669,"RA_OF_ASC_NODE":288.5521,"ARG_OF_PERICENTER":265.9139,"MEAN_ANOMALY":94.0722,"EPHEMERIS_TYPE":0,"CLASSIFICATION_TYPE":"U","NORAD_CAT_ID":60390,"ELEMENT_SET_NO":999,"REV_AT_EPOCH":8125,"BSTAR":7.1005e-5,"MEAN_MOTION_DOT":5.8e-7,"MEAN_MOTION_DDOT":0},{"OBJECT_NAME":"QIANFAN-13","OBJECT_ID":"2024-140N","EPOCH":"2026-03-26T13:18:38.628000","MEAN_MOTION":13.51003188,"ECCENTRICITY":0.0011121,"INCLINATION":88.9681,"RA_OF_ASC_NODE":288.66,"ARG_OF_PERICENTER":268.8657,"MEAN_ANOMALY":91.122,"EPHEMERIS_TYPE":0,"CLASSIFICATION_TYPE":"U","NORAD_CAT_ID":60391,"ELEMENT_SET_NO":999,"REV_AT_EPOCH":8128,"BSTAR":7.2049e-5,"MEAN_MOTION_DOT":5.8e-7,"MEAN_MOTION_DDOT":0},{"OBJECT_NAME":"QIANFAN-14","OBJECT_ID":"2024-140P","EPOCH":"2026-03-26T12:07:26.268960","MEAN_MOTION":13.51003353,"ECCENTRICITY":0.001481,"INCLINATION":88.966,"RA_OF_ASC_NODE":288.5406,"ARG_OF_PERICENTER":268.8064,"MEAN_ANOMALY":91.139,"EPHEMERIS_TYPE":0,"CLASSIFICATION_TYPE":"U","NORAD_CAT_ID":60392,"ELEMENT_SET_NO":999,"REV_AT_EPOCH":8128,"BSTAR":8.1477e-5,"MEAN_MOTION_DOT":6.5e-7,"MEAN_MOTION_DDOT":0},{"OBJECT_NAME":"QIANFAN-15","OBJECT_ID":"2024-140Q","EPOCH":"2026-03-26T12:19:31.426752","MEAN_MOTION":13.51006721,"ECCENTRICITY":0.0010633,"INCLINATION":88.9683,"RA_OF_ASC_NODE":288.5209,"ARG_OF_PERICENTER":252.7799,"MEAN_ANOMALY":107.2189,"EPHEMERIS_TYPE":0,"CLASSIFICATION_TYPE":"U","NORAD_CAT_ID":60393,"ELEMENT_SET_NO":999,"REV_AT_EPOCH":8127,"BSTAR":5.8302e-5,"MEAN_MOTION_DOT":5.0e-7,"MEAN_MOTION_DDOT":0},{"OBJECT_NAME":"QIANFAN-16","OBJECT_ID":"2024-140R","EPOCH":"2026-03-26T12:01:34.206240","MEAN_MOTION":13.50999894,"ECCENTRICITY":0.0012751,"INCLINATION":88.9686,"RA_OF_ASC_NODE":288.6455,"ARG_OF_PERICENTER":273.3802,"MEAN_ANOMALY":86.589,"EPHEMERIS_TYPE":0,"CLASSIFICATION_TYPE":"U","NORAD_CAT_ID":60394,"ELEMENT_SET_NO":999,"REV_AT_EPOCH":8118,"BSTAR":7.2153e-5,"MEAN_MOTION_DOT":5.9e-7,"MEAN_MOTION_DDOT":0},{"OBJECT_NAME":"QIANFAN-17","OBJECT_ID":"2024-140S","EPOCH":"2026-03-26T11:55:39.509184","MEAN_MOTION":13.51006309,"ECCENTRICITY":0.0013127,"INCLINATION":88.9697,"RA_OF_ASC_NODE":288.7032,"ARG_OF_PERICENTER":266.1679,"MEAN_ANOMALY":93.7971,"EPHEMERIS_TYPE":0,"CLASSIFICATION_TYPE":"U","NORAD_CAT_ID":60395,"ELEMENT_SET_NO":999,"REV_AT_EPOCH":8214,"BSTAR":4.738e-5,"MEAN_MOTION_DOT":4.3e-7,"MEAN_MOTION_DDOT":0}]
